[{"OBJECT_NAME":"STARLINK-3694","OBJECT_ID":"2022-025B","EPOCH":"2026-03-10T00:00:02.999808","MEAN_MOTION":15.13116065,"ECCENTRICITY":0.00013443,"INCLINATION":53.0809,"RA_OF_ASC_NODE":34.3645,"ARG_OF_PERICENTER":58.4211,"MEAN_ANOMALY":355.3419,"EPHEMERIS_TYPE":0,"CLASSIFICATION_TYPE":"U","NORAD_CAT_ID":51957,"ELEMENT_SET_NO":999,"REV_AT_EPOCH":578,"BSTAR":0.002964574,"MEAN_MOTION_DOT":0.00053212,"MEAN_MOTION_DDOT":0},{"OBJECT_NAME":"COSMOS 375 DEB","OBJECT_ID":"1970-091AX","EPOCH":"2026-03-08T20:29:59.773920","MEAN_MOTION":14.03576179,"ECCENTRICITY":0.05047105,"INCLINATION":62.6067,"RA_OF_ASC_NODE":236.2052,"ARG_OF_PERICENTER":173.5052,"MEAN_ANOMALY":187.2884,"EPHEMERIS_TYPE":0,"CLASSIFICATION_TYPE":"U","NORAD_CAT_ID":19949,"ELEMENT_SET_NO":999,"REV_AT_EPOCH":86548,"BSTAR":0.0018818841,"MEAN_MOTION_DOT":9.26e-5,"MEAN_MOTION_DDOT":0}]
